0 BREEZE-M DEB
1 38893U 12044AA  13281.97708675  .00407653  23452-4  47285-2 0  5603
2 38893 049.9287 130.2292 1131557 280.8727 066.7052 13.43563680 42122
0 BREEZE-M DEB
1 38893U 12044AA  13282.49769070  .00423977  24959-4  49137-2 0  5616
2 38893 049.9295 128.2620 1129035 282.4977 065.2085 13.44125823 42197
0 BREEZE-M DEB
1 38893U 12044AA  13282.79508725  .00372028  20499-4  43054-2 0  5625
2 38893 049.9292 127.1379 1128260 283.4637 064.3152 13.44325104 42230
0 BREEZE-M DEB
1 38893U 12044AA  13283.46404893  .00421186  24755-4  48647-2 0  5634
2 38893 049.9292 124.6060 1126025 285.5664 062.3873 13.44835494 42325
0 BREEZE-M DEB
1 38893U 12044AA  13283.76128279  .00426707  25277-4  49257-2 0  5641
2 38893 049.9290 123.4807 1125279 286.5168 061.5178 13.45006335 42367
0 BREEZE-M DEB
1 38893U 12044AA  13284.05847599  .00391185  22139-4  45148-2 0  5658
2 38893 049.9290 122.3553 1124427 287.4621 060.6571 13.45201047 42400
0 BREEZE-M DEB
1 38893U 12044AA  13284.50418367  .00411133  23898-4  47399-2 0  5665
2 38893 049.9289 120.6673 1123101 288.8639 059.3866 13.45504188 42464
0 BREEZE-M DEB
1 38893U 12044AA  13285.46954921  .00367296  20242-4  42254-2 0  5690
2 38893 049.9284 117.0079 1120333 291.9137 056.6421 13.46149500 42596
0 BREEZE-M DEB
1 38893U 12044AA  13285.98917409  .00370540  20527-4  42527-2 0  5704
2 38893 049.9283 115.0361 1118893 293.5565 055.1748 13.46498929 42664
0 BREEZE-M DEB
1 38893U 12044AA  13286.50866077  .00360445  19750-4  41340-2 0  5719
2 38893 049.9280 113.0642 1117389 295.1993 053.7160 13.46840455 42738
0 BREEZE-M DEB
1 38893U 12044AA  13287.47307302  .00393466  22509-4  45007-2 0  5727
2 38893 049.9272 109.4005 1114582 298.2493 051.0278 13.47488646 42868
0 BREEZE-M DEB
1 38893U 12044AA  13287.76971879  .00450171  27757-4  51374-2 0  5737
2 38893 049.9269 108.2727 1113490 299.1868 050.2086 13.47753776 42907
0 BREEZE-M DEB
1 38893U 12044AA  13287.99216392  .00501994  33196-4  57186-2 0  5746
2 38893 049.9269 107.4267 1112517 299.8927 049.5948 13.47987407 42930
0 BREEZE-M DEB
1 38893U 12044AA  13288.73337571  .00452659  28084-4  51451-2 0  5755
2 38893 049.9267 104.6053 1109569 302.2405 047.5594 13.48671577 43039
0 BREEZE-M DEB
1 38893U 12044AA  13289.69643001  .00485482  31549-4  54963-2 0  5761
2 38893 049.9260 100.9362 1106260 305.3054 044.9177 13.49451322 43160
0 BREEZE-M DEB
1 38893U 12044AA  13290.51089561  .00433640  00000-0  44532-2 0  5774
2 38893 049.9198 097.8033 1108890 307.9277 042.6438 13.50209749 43278
0 BREEZE-M DEB
1 38893U 12044AA  13290.51089578  .00485200  31588-4  54740-2 0  5772
2 38893 049.9260 097.8295 1103408 307.8846 042.7120 13.50127661 43270
0 BREEZE-M DEB
1 38893U 12044AA  13290.65894574  .00345931  00000-0  39768-2 0  5799
2 38893 049.9273 097.2648 1101008 308.3531 042.3475 13.50291165 43293
0 BREEZE-M DEB
1 38893U 12044AA  13291.47289965  .00459885  29030-4  51709-2 0  5782
2 38893 049.9266 094.1557 1099819 310.9504 040.1105 13.50966972 43409
0 BREEZE-M DEB
1 38893U 12044AA  13291.69481998  .00453208  28373-4  50905-2 0  5796
2 38893 049.9261 093.3066 1099164 311.6584 039.5111 13.51126766 43431
0 BREEZE-M DEB
1 38893U 12044AA  13292.50827484  .00456777  28798-4  51186-2 0  5800
2 38893 049.9256 090.1960 1096337 314.2495 037.3292 13.51780511 43544
0 BREEZE-M DEB
1 38893U 12044AA  13292.95181389  .00439917  27163-4  49219-2 0  5813
2 38893 049.9253 088.4983 1094706 315.6623 036.1455 13.52163513 43605
0 BREEZE-M DEB
1 38893U 12044AA  13293.76465613  .00476340  30929-4  53134-2 0  5825
2 38893 049.9249 085.3846 1091957 318.2571 033.9789 13.52805999 43718
0 BREEZE-M DEB
1 38893U 12044AA  13294.42940588  .00491437  32617-4  54742-2 0  5835
2 38893 049.9247 082.8359 1089449 320.3780 032.2180 13.53374674 43805
0 BREEZE-M DEB
1 38893U 12044AA  13295.16768761  .00498369  33453-4  55363-2 0  5849
2 38893 049.9242 080.0027 1086769 322.7342 030.2692 13.54001786 43903
0 BREEZE-M DEB
1 38893U 12044AA  13295.83185020  .00525620  36644-4  58106-2 0  5859
2 38893 049.9237 077.4518 1084356 324.8512 028.5251 13.54600207 43997
